ORBCOMM FM103           
1 40091U 14040F   25031.47434106  .00001733  00000+0  41222-3 0  9990
2 40091  47.0063 303.2733 0001986   3.9041 356.1860 14.57759192544156
ORBCOMM FM114           
1 41179U 15081A   25031.56925095  .00001545  00000+0  37109-3 0  9996
2 41179  47.0008 211.9574 0001562  96.9741 263.1322 14.57816298484536
ORBCOMM FM119           
1 41180U 15081B   25031.55022013  .00001848  00000+0  43726-3 0  9993
2 41180  47.0002 121.3068 0001277 205.9638 154.1184 14.57734163485787
ORBCOMM FM105           
1 41181U 15081C   25031.53561730  .00000883  00000+0  29565-3 0  9999
2 41181  47.0013 113.1314 0000742  51.2027 308.8919 14.45005228480984
ORBCOMM FM110           
1 41182U 15081D   25031.75002339  .00002406  00000+0  55775-3 0  9994
2 41182  46.9993 210.4684 0002723 234.3502 125.7130 14.57773484484618
ORBCOMM FM118           
1 41183U 15081E   25031.80096486  .00001967  00000+0  46353-3 0  9990
2 41183  47.0025 210.6453 0003102 231.0621 128.9989 14.57701037484624
ORBCOMM FM112           
1 41184U 15081F   25031.52680753  .00002551  00000+0  58968-3 0  9991
2 41184  46.9980 120.5893 0000645 208.8112 151.2738 14.57724645485729
ORBCOMM FM113           
1 41185U 15081G   25031.70913386  .00002391  00000+0  55505-3 0  9999
2 41185  46.9998 120.0317 0000967 205.8122 154.2716 14.57724539485800
